{
  "norad_id": 59706,
  "name": "ZHIHUI TIANWANG-1 01B",
  "history": [
    {
      "epoch": "2026-03-25T08:55:42.623904Z",
      "apogee_km": 20245.317788095093,
      "perigee_km": 20118.982719361247,
      "latitude_deg": 1.971514935770797e-05,
      "longitude_deg": -142.72673863580434,
      "height_km": 20241.53927580583,
      "semi_major_axis_km": 26560.28725372817,
      "eccentricity": 0.00237827,
      "inclination_deg": 53.1231,
      "raan_deg": 174.0339,
      "arg_perigee_deg": 200.6195,
      "mean_anomaly_deg": 159.3165,
      "mean_motion_rev_day": 2.0056429
    }
  ]
}